METOP-B                 
1 38771U 12049A   26061.75789492  .00000139  00000+0  83411-4 0  9991
2 38771  98.6657 115.3115 0001247 304.0928  56.0131 14.21441976698149
SARAL                   
1 39086U 13009A   26061.75757653  .00000159  00000+0  74366-4 0  9993
2 39086  98.5551 249.6604 0001087 204.6164 155.4968 14.32825611680365
METOP-C                 
1 43689U 18087A   26061.78253107  .00000136  00000+0  82189-4 0  9993
2 43689  98.6781 123.2723 0002154 109.5565 250.5846 14.21494278379713
OTB-3-GAZELLE           
1 54023U 22127A   26061.52752102  .00000084  00000+0  38186-4 0  9998
2 54023  98.3900  54.8845 0013785 145.9810 214.2266 14.42632212178984
EOS-6 (OCEANSAT-3)      
1 54361U 22158A   26061.88065363  .00000452  00000+0  13629-3 0  9995
2 54361  98.3492 161.5229 0000307  30.3301 329.7909 14.46998296172469
KINEIS-1B               
1 60079U 24114A   26061.80879684  .00001492  00000+0  20225-3 0  9998
2 60079  97.9929  86.4703 0003868  87.1345 273.0309 14.80394680 91669
KINEIS-1C               
1 60081U 24114C   26061.84248738  .00001346  00000+0  18327-3 0  9993
2 60081  97.9949  86.3279 0001958 126.4414 233.6979 14.80386746 91640
KINEIS-1D               
1 60082U 24114D   26061.82733706  .00000963  00000+0  14694-3 0  9993
2 60082  97.9974  83.0921 0002132 135.1821 224.9561 14.76098450 91435
KINEIS-1E               
1 60083U 24114E   26061.85946991  .00001405  00000+0  19089-3 0  9994
2 60083  97.9935  86.4265 0002474  95.7528 264.3966 14.80405043 91651
KINEIS-1A               
1 60084U 24114F   26061.82572846  .00001121  00000+0  15368-3 0  9997
2 60084  97.9943  86.5151 0004754 107.8357 252.3374 14.80420845 91651
KINEIS-3C               
1 61220U 24172A   26061.78081239  .00002835  00000+0  45654-3 0  9994
2 61220  98.0305 152.8660 0003531 114.3865 245.7711 14.72274172 77419
KINEIS-3D               
1 61221U 24172B   26061.77417803  .00002844  00000+0  45796-3 0  9991
2 61221  98.0306 152.8708 0002539 118.0840 242.0625 14.72278033 77699
KINEIS-3E               
1 61222U 24172C   26061.75709049  .00002761  00000+0  44494-3 0  9998
2 61222  98.0301 152.8494 0001616 110.9666 249.1714 14.72266543 77699
KINEIS-3A               
1 61223U 24172D   26061.80810861  .00002760  00000+0  44456-3 0  9997
2 61223  98.0296 152.9888 0003182  84.6266 275.5304 14.72294538 77125
KINEIS-3B               
1 61224U 24172E   26061.79101717  .00002748  00000+0  44312-3 0  9996
2 61224  98.0293 153.0054 0003712  77.4683 282.6940 14.72248557 77699
KINEIS-5C               
1 62081U 24219A   26061.83589308  .00001281  00000+0  21026-3 0  9999
2 62081  97.9723 223.4238 0001685  96.6665 263.4735 14.72344664 68104
KINEIS-5D               
1 62082U 24219B   26061.86981451  .00001657  00000+0  26975-3 0  9993
2 62082  97.9646 223.4428 0001180  73.6747 286.4590 14.72320898 68114
