[{"OBJECT_NAME":"METOP-B","OBJECT_ID":"2012-049A","EPOCH":"2026-03-02T18:11:22.121088","MEAN_MOTION":14.21441976,"ECCENTRICITY":0.0001247,"INCLINATION":98.6657,"RA_OF_ASC_NODE":115.3115,"ARG_OF_PERICENTER":304.0928,"MEAN_ANOMALY":56.0131,"EPHEMERIS_TYPE":0,"CLASSIFICATION_TYPE":"U","NORAD_CAT_ID":38771,"ELEMENT_SET_NO":999,"REV_AT_EPOCH":69814,"BSTAR":8.3411e-5,"MEAN_MOTION_DOT":1.39e-6,"MEAN_MOTION_DDOT":0},{"OBJECT_NAME":"SARAL","OBJECT_ID":"2013-009A","EPOCH":"2026-03-02T18:10:54.612192","MEAN_MOTION":14.32825611,"ECCENTRICITY":0.0001087,"INCLINATION":98.5551,"RA_OF_ASC_NODE":249.6604,"ARG_OF_PERICENTER":204.6164,"MEAN_ANOMALY":155.4968,"EPHEMERIS_TYPE":0,"CLASSIFICATION_TYPE":"U","NORAD_CAT_ID":39086,"ELEMENT_SET_NO":999,"REV_AT_EPOCH":68036,"BSTAR":7.4366e-5,"MEAN_MOTION_DOT":1.59e-6,"MEAN_MOTION_DDOT":0},{"OBJECT_NAME":"METOP-C","OBJECT_ID":"2018-087A","EPOCH":"2026-03-02T18:46:50.684448","MEAN_MOTION":14.21494278,"ECCENTRICITY":0.0002154,"INCLINATION":98.6781,"RA_OF_ASC_NODE":123.2723,"ARG_OF_PERICENTER":109.5565,"MEAN_ANOMALY":250.5846,"EPHEMERIS_TYPE":0,"CLASSIFICATION_TYPE":"U","NORAD_CAT_ID":43689,"ELEMENT_SET_NO":999,"REV_AT_EPOCH":37971,"BSTAR":8.2189e-5,"MEAN_MOTION_DOT":1.36e-6,"MEAN_MOTION_DDOT":0},{"OBJECT_NAME":"OTB-3-GAZELLE","OBJECT_ID":"2022-127A","EPOCH":"2026-03-02T12:39:37.816128","MEAN_MOTION":14.42632212,"ECCENTRICITY":0.0013785,"INCLINATION":98.39,"RA_OF_ASC_NODE":54.8845,"ARG_OF_PERICENTER":145.981,"MEAN_ANOMALY":214.2266,"EPHEMERIS_TYPE":0,"CLASSIFICATION_TYPE":"U","NORAD_CAT_ID":54023,"ELEMENT_SET_NO":999,"REV_AT_EPOCH":17898,"BSTAR":3.8186e-5,"MEAN_MOTION_DOT":8.4e-7,"MEAN_MOTION_DDOT":0},{"OBJECT_NAME":"EOS-6 (OCEANSAT-3)","OBJECT_ID":"2022-158A","EPOCH":"2026-03-02T21:08:08.473632","MEAN_MOTION":14.46998296,"ECCENTRICITY":3.07e-5,"INCLINATION":98.3492,"RA_OF_ASC_NODE":161.5229,"ARG_OF_PERICENTER":30.3301,"MEAN_ANOMALY":329.7909,"EPHEMERIS_TYPE":0,"CLASSIFICATION_TYPE":"U","NORAD_CAT_ID":54361,"ELEMENT_SET_NO":999,"REV_AT_EPOCH":17246,"BSTAR":0.00013629,"MEAN_MOTION_DOT":4.52e-6,"MEAN_MOTION_DDOT":0},{"OBJECT_NAME":"KINEIS-1B","OBJECT_ID":"2024-114A","EPOCH":"2026-03-02T19:24:40.046976","MEAN_MOTION":14.8039468,"ECCENTRICITY":0.0003868,"INCLINATION":97.9929,"RA_OF_ASC_NODE":86.4703,"ARG_OF_PERICENTER":87.1345,"MEAN_ANOMALY":273.0309,"EPHEMERIS_TYPE":0,"CLASSIFICATION_TYPE":"U","NORAD_CAT_ID":60079,"ELEMENT_SET_NO":999,"REV_AT_EPOCH":9166,"BSTAR":0.00020225,"MEAN_MOTION_DOT":1.492e-5,"MEAN_MOTION_DDOT":0},{"OBJECT_NAME":"KINEIS-1C","OBJECT_ID":"2024-114C","EPOCH":"2026-03-02T20:13:10.909632","MEAN_MOTION":14.80386746,"ECCENTRICITY":0.0001958,"INCLINATION":97.9949,"RA_OF_ASC_NODE":86.3279,"ARG_OF_PERICENTER":126.4414,"MEAN_ANOMALY":233.6979,"EPHEMERIS_TYPE":0,"CLASSIFICATION_TYPE":"U","NORAD_CAT_ID":60081,"ELEMENT_SET_NO":999,"REV_AT_EPOCH":9164,"BSTAR":0.00018327,"MEAN_MOTION_DOT":1.346e-5,"MEAN_MOTION_DDOT":0},{"OBJECT_NAME":"KINEIS-1D","OBJECT_ID":"2024-114D","EPOCH":"2026-03-02T19:51:21.921984","MEAN_MOTION":14.7609845,"ECCENTRICITY":0.0002132,"INCLINATION":97.9974,"RA_OF_ASC_NODE":83.0921,"ARG_OF_PERICENTER":135.1821,"MEAN_ANOMALY":224.9561,"EPHEMERIS_TYPE":0,"CLASSIFICATION_TYPE":"U","NORAD_CAT_ID":60082,"ELEMENT_SET_NO":999,"REV_AT_EPOCH":9143,"BSTAR":0.00014694,"MEAN_MOTION_DOT":9.63e-6,"MEAN_MOTION_DDOT":0},{"OBJECT_NAME":"KINEIS-1E","OBJECT_ID":"2024-114E","EPOCH":"2026-03-02T20:37:38.200224","MEAN_MOTION":14.80405043,"ECCENTRICITY":0.0002474,"INCLINATION":97.9935,"RA_OF_ASC_NODE":86.4265,"ARG_OF_PERICENTER":95.7528,"MEAN_ANOMALY":264.3966,"EPHEMERIS_TYPE":0,"CLASSIFICATION_TYPE":"U","NORAD_CAT_ID":60083,"ELEMENT_SET_NO":999,"REV_AT_EPOCH":9165,"BSTAR":0.00019089,"MEAN_MOTION_DOT":1.405e-5,"MEAN_MOTION_DDOT":0},{"OBJECT_NAME":"KINEIS-1A","OBJECT_ID":"2024-114F","EPOCH":"2026-03-02T19:49:02.938944","MEAN_MOTION":14.80420845,"ECCENTRICITY":0.0004754,"INCLINATION":97.9943,"RA_OF_ASC_NODE":86.5151,"ARG_OF_PERICENTER":107.8357,"MEAN_ANOMALY":252.3374,"EPHEMERIS_TYPE":0,"CLASSIFICATION_TYPE":"U","NORAD_CAT_ID":60084,"ELEMENT_SET_NO":999,"REV_AT_EPOCH":9165,"BSTAR":0.00015368,"MEAN_MOTION_DOT":1.121e-5,"MEAN_MOTION_DDOT":0},{"OBJECT_NAME":"KINEIS-3C","OBJECT_ID":"2024-172A","EPOCH":"2026-03-02T18:44:22.190496","MEAN_MOTION":14.72274172,"ECCENTRICITY":0.0003531,"INCLINATION":98.0305,"RA_OF_ASC_NODE":152.866,"ARG_OF_PERICENTER":114.3865,"MEAN_ANOMALY":245.7711,"EPHEMERIS_TYPE":0,"CLASSIFICATION_TYPE":"U","NORAD_CAT_ID":61220,"ELEMENT_SET_NO":999,"REV_AT_EPOCH":7741,"BSTAR":0.00045654,"MEAN_MOTION_DOT":2.835e-5,"MEAN_MOTION_DDOT":0},{"OBJECT_NAME":"KINEIS-3D","OBJECT_ID":"2024-172B","EPOCH":"2026-03-02T18:34:48.981792","MEAN_MOTION":14.72278033,"ECCENTRICITY":0.0002539,"INCLINATION":98.0306,"RA_OF_ASC_NODE":152.8708,"ARG_OF_PERICENTER":118.084,"MEAN_ANOMALY":242.0625,"EPHEMERIS_TYPE":0,"CLASSIFICATION_TYPE":"U","NORAD_CAT_ID":61221,"ELEMENT_SET_NO":999,"REV_AT_EPOCH":7769,"BSTAR":0.00045796,"MEAN_MOTION_DOT":2.844e-5,"MEAN_MOTION_DDOT":0},{"OBJECT_NAME":"KINEIS-3E","OBJECT_ID":"2024-172C","EPOCH":"2026-03-02T18:10:12.618336","MEAN_MOTION":14.72266543,"ECCENTRICITY":0.0001616,"INCLINATION":98.0301,"RA_OF_ASC_NODE":152.8494,"ARG_OF_PERICENTER":110.9666,"MEAN_ANOMALY":249.1714,"EPHEMERIS_TYPE":0,"CLASSIFICATION_TYPE":"U","NORAD_CAT_ID":61222,"ELEMENT_SET_NO":999,"REV_AT_EPOCH":7769,"BSTAR":0.00044494,"MEAN_MOTION_DOT":2.761e-5,"MEAN_MOTION_DDOT":0},{"OBJECT_NAME":"KINEIS-3A","OBJECT_ID":"2024-172D","EPOCH":"2026-03-02T19:23:40.583904","MEAN_MOTION":14.72294538,"ECCENTRICITY":0.0003182,"INCLINATION":98.0296,"RA_OF_ASC_NODE":152.9888,"ARG_OF_PERICENTER":84.6266,"MEAN_ANOMALY":275.5304,"EPHEMERIS_TYPE":0,"CLASSIFICATION_TYPE":"U","NORAD_CAT_ID":61223,"ELEMENT_SET_NO":999,"REV_AT_EPOCH":7712,"BSTAR":0.00044456,"MEAN_MOTION_DOT":2.76e-5,"MEAN_MOTION_DDOT":0},{"OBJECT_NAME":"KINEIS-3B","OBJECT_ID":"2024-172E","EPOCH":"2026-03-02T18:59:03.883488","MEAN_MOTION":14.72248557,"ECCENTRICITY":0.0003712,"INCLINATION":98.0293,"RA_OF_ASC_NODE":153.0054,"ARG_OF_PERICENTER":77.4683,"MEAN_ANOMALY":282.694,"EPHEMERIS_TYPE":0,"CLASSIFICATION_TYPE":"U","NORAD_CAT_ID":61224,"ELEMENT_SET_NO":999,"REV_AT_EPOCH":7769,"BSTAR":0.00044312,"MEAN_MOTION_DOT":2.748e-5,"MEAN_MOTION_DDOT":0},{"OBJECT_NAME":"KINEIS-5C","OBJECT_ID":"2024-219A","EPOCH":"2026-03-02T20:03:41.162112","MEAN_MOTION":14.72344664,"ECCENTRICITY":0.0001685,"INCLINATION":97.9723,"RA_OF_ASC_NODE":223.4238,"ARG_OF_PERICENTER":96.6665,"MEAN_ANOMALY":263.4735,"EPHEMERIS_TYPE":0,"CLASSIFICATION_TYPE":"U","NORAD_CAT_ID":62081,"ELEMENT_SET_NO":999,"REV_AT_EPOCH":6810,"BSTAR":0.00021026,"MEAN_MOTION_DOT":1.281e-5,"MEAN_MOTION_DDOT":0},{"OBJECT_NAME":"KINEIS-5D","OBJECT_ID":"2024-219B","EPOCH":"2026-03-02T20:52:31.973664","MEAN_MOTION":14.72320898,"ECCENTRICITY":0.000118,"INCLINATION":97.9646,"RA_OF_ASC_NODE":223.4428,"ARG_OF_PERICENTER":73.6747,"MEAN_ANOMALY":286.459,"EPHEMERIS_TYPE":0,"CLASSIFICATION_TYPE":"U","NORAD_CAT_ID":62082,"ELEMENT_SET_NO":999,"REV_AT_EPOCH":6811,"BSTAR":0.00026975,"MEAN_MOTION_DOT":1.657e-5,"MEAN_MOTION_DDOT":0}]
